{
    "links": {
        "self": "http://www.neowsapp.com/rest/v1/neo/3559740?api_key=iIulBulltgU6a56xZRHN4H3l9WmuAYTsLGpBGhQ2"
    },
    "id": "3559740",
    "neo_reference_id": "3559740",
    "name": "(2011 ED41)",
    "designation": "2011 ED41",
    "nasa_jpl_url": "http://ssd.jpl.nasa.gov/sbdb.cgi?sstr=3559740",
    "absolute_magnitude_h": 22.4,
    "estimated_diameter": {
        "kilometers": {
            "estimated_diameter_min": 0.0880146521,
            "estimated_diameter_max": 0.1968067451
        },
        "meters": {
            "estimated_diameter_min": 88.0146520901,
            "estimated_diameter_max": 196.8067450894
        },
        "miles": {
            "estimated_diameter_min": 0.0546897524,
            "estimated_diameter_max": 0.122290004
        },
        "feet": {
            "estimated_diameter_min": 288.7619911632,
            "estimated_diameter_max": 645.6914415591
        }
    },
    "is_potentially_hazardous_asteroid": false,
    "close_approach_data": [
        {
            "close_approach_date": "2011-03-29",
            "close_approach_date_full": "2011-Mar-29 06:44",
            "epoch_date_close_approach": 1301381040000,
            "relative_velocity": {
                "kilometers_per_second": "8.6872948728",
                "kilometers_per_hour": "31274.2615422348",
                "miles_per_hour": "19432.6099010625"
            },
            "miss_distance": {
                "astronomical": "0.0710907235",
                "lunar": "27.6542914415",
                "kilometers": "10635020.812358945",
                "miles": "6608295.502065641"
            },
            "orbiting_body": "Earth"
        },
        {
            "close_approach_date": "2011-09-21",
            "close_approach_date_full": "2011-Sep-21 02:21",
            "epoch_date_close_approach": 1316571660000,
            "relative_velocity": {
                "kilometers_per_second": "6.3961300657",
                "kilometers_per_hour": "23026.0682365077",
                "miles_per_hour": "14307.5033439567"
            },
            "miss_distance": {
                "astronomical": "0.4013586192",
                "lunar": "156.1285028688",
                "kilometers": "60042394.538461104",
                "miles": "37308613.9427830752"
            },
            "orbiting_body": "Earth"
        },
        {
            "close_approach_date": "2107-08-20",
            "close_approach_date_full": "2107-Aug-20 06:38",
            "epoch_date_close_approach": 4343265480000,
            "relative_velocity": {
                "kilometers_per_second": "17.0311342863",
                "kilometers_per_hour": "61312.0834306307",
                "miles_per_hour": "38096.9442849938"
            },
            "miss_distance": {
                "astronomical": "0.3464679815",
                "lunar": "134.7760448035",
                "kilometers": "51830872.055599405",
                "miles": "32206210.473525589"
            },
            "orbiting_body": "Earth"
        },
        {
            "close_approach_date": "2110-03-11",
            "close_approach_date_full": "2110-Mar-11 07:02",
            "epoch_date_close_approach": 4423964520000,
            "relative_velocity": {
                "kilometers_per_second": "17.7658350593",
                "kilometers_per_hour": "63957.0062133626",
                "miles_per_hour": "39740.3964440752"
            },
            "miss_distance": {
                "astronomical": "0.3605787909",
                "lunar": "140.2651496601",
                "kilometers": "53941819.085815383",
                "miles": "33517892.1346149654"
            },
            "orbiting_body": "Earth"
        }
    ],
    "orbital_data": {
        "orbit_id": "12",
        "orbit_determination_date": "2017-04-06 08:54:09",
        "first_observation_date": "2011-03-10",
        "last_observation_date": "2011-03-29",
        "data_arc_in_days": 19,
        "observations_used": 50,
        "orbit_uncertainty": "8",
        "minimum_orbit_intersection": ".0477862",
        "jupiter_tisserand_invariant": "5.071",
        "epoch_osculation": "2455636.5",
        "eccentricity": ".2776368394300028",
        "semi_major_axis": "1.26036781781564",
        "inclination": "4.30130468249726",
        "ascending_node_longitude": "52.90691009699384",
        "orbital_period": "516.8260372823721",
        "perihelion_distance": ".9104432803580161",
        "perihelion_argument": "191.8567707221773",
        "aphelion_distance": "1.610292355273264",
        "perihelion_time": "2455694.594353294927",
        "mean_anomaly": "319.5338359960622",
        "mean_motion": ".6965593333745125",
        "equinox": "J2000",
        "orbit_class": {
            "orbit_class_type": "APO",
            "orbit_class_description": "Near-Earth asteroid orbits which cross the Earth’s orbit similar to that of 1862 Apollo",
            "orbit_class_range": "a (semi-major axis) > 1.0 AU; q (perihelion) < 1.017 AU"
        }
    },
    "is_sentry_object": false
}